start=new Date('2023-04-21T00:00:00.000Z').valueOf();
sats=[{"TLE_LINE2":"2 44772  53.0532 257.3453 0001174  79.5152 280.5969 15.06365194189631","REF_FRAME":"TEME","PERIAPSIS":"546.507","ECCENTRICITY":"0.00011740","LAUNCH_DATE":"2019-11-11","PERIOD":"95.594","SEMIMAJOR_AXIS":"6925.455","CENTER_NAME":"EARTH","BSTAR":"0.00194380000000","MEAN_ELEMENT_THEORY":"SGP4","DECAY_DATE":null,"MEAN_MOTION_DOT":"0.00028763","EPHEMERIS_TYPE":"0","CLASSIFICATION_TYPE":"U","NORAD_CAT_ID":"44772","MEAN_ANOMALY":"280.5969","INCLINATION":"53.0532","ELEMENT_SET_NO":"999","TIME_SYSTEM":"UTC","REV_AT_EPOCH":"18963","RA_OF_ASC_NODE":"257.3453","ARG_OF_PERICENTER":"79.5152","TLE_LINE1":"1 44772U 19074BM  23110.88202972  .00028763  00000-0  19438-2 0  9993","MEAN_MOTION_DDOT":"0.0000000000000","GP_ID":"230456809","FILE":"3891109","OBJECT_TYPE":"PAYLOAD","OBJECT_ID":"2019-074BM","MEAN_MOTION":"15.06365194","SITE":"AFETR","RCS_SIZE":"LARGE","OBJECT_NAME":"STARLINK-1068","APOAPSIS":"548.133","EPOCH":"2023-04-20T21:10:07.367808","COUNTRY_CODE":"US"},{"COUNTRY_CODE":"US","EPOCH":"2023-04-20T05:38:35.344320","APOAPSIS":"547.697","OBJECT_NAME":"STARLINK-1073","RCS_SIZE":"LARGE","SITE":"AFETR","MEAN_MOTION":"15.06450447","OBJECT_ID":"2020-001A","OBJECT_TYPE":"PAYLOAD","FILE":"3890827","GP_ID":"230425301","MEAN_MOTION_DDOT":"0.0000000000000","TLE_LINE1":"1 44914U 20001A   23110.23513130  .00023947  00000-0  16189-2 0  9992","ARG_OF_PERICENTER":"104.8159","RA_OF_ASC_NODE":"40.2449","REV_AT_EPOCH":"18091","TIME_SYSTEM":"UTC","ELEMENT_SET_NO":"999","INCLINATION":"53.0555","MEAN_ANOMALY":"255.2932","NORAD_CAT_ID":"44914","CLASSIFICATION_TYPE":"U","EPHEMERIS_TYPE":"0","MEAN_MOTION_DOT":"0.00023947","DECAY_DATE":null,"MEAN_ELEMENT_THEORY":"SGP4","BSTAR":"0.00161890000000","CENTER_NAME":"EARTH","SEMIMAJOR_AXIS":"6925.194","PERIOD":"95.589","LAUNCH_DATE":"2020-01-07","ECCENTRICITY":"0.00009210","REF_FRAME":"TEME","PERIAPSIS":"546.421","TLE_LINE2":"2 44914  53.0555  40.2449 0000921 104.8159 255.2932 15.06450447180913"},{"RA_OF_ASC_NODE":"40.4118","ARG_OF_PERICENTER":"111.8642","REV_AT_EPOCH":"18091","TIME_SYSTEM":"UTC","OBJECT_ID":"2020-001B","OBJECT_TYPE":"PAYLOAD","MEAN_MOTION":"15.06469955","GP_ID":"230426052","FILE":"3890827","TLE_LINE1":"1 44915U 20001B   23110.19825296  .00027199  00000-0  18344-2 0  9995","MEAN_MOTION_DDOT":"0.0000000000000","OBJECT_NAME":"STARLINK-1084","RCS_SIZE":"LARGE","SITE":"AFETR","COUNTRY_CODE":"US","EPOCH":"2023-04-20T04:45:29.055744","APOAPSIS":"547.761","ECCENTRICITY":"0.00011000","TLE_LINE2":"2 44915  53.0557  40.4118 0001100 111.8642 248.2464 15.06469955180912","PERIAPSIS":"546.237","REF_FRAME":"TEME","CENTER_NAME":"EARTH","PERIOD":"95.588","SEMIMAJOR_AXIS":"6925.134","LAUNCH_DATE":"2020-01-07","EPHEMERIS_TYPE":"0","DECAY_DATE":null,"MEAN_MOTION_DOT":"0.00027199","MEAN_ELEMENT_THEORY":"SGP4","BSTAR":"0.00183440000000","INCLINATION":"53.0557","ELEMENT_SET_NO":"999","MEAN_ANOMALY":"248.2464","NORAD_CAT_ID":"44915","CLASSIFICATION_TYPE":"U"},{"TLE_LINE1":"1 44917U 20001D   23110.20193437  .00025131  00000-0  16973-2 0  9994","MEAN_MOTION_DDOT":"0.0000000000000","OBJECT_ID":"2020-001D","OBJECT_TYPE":"PAYLOAD","MEAN_MOTION":"15.06459621","GP_ID":"230424300","FILE":"3890827","TIME_SYSTEM":"UTC","RA_OF_ASC_NODE":"40.4000","ARG_OF_PERICENTER":"113.5388","REV_AT_EPOCH":"18091","EPOCH":"2023-04-20T04:50:47.129568","APOAPSIS":"547.719","COUNTRY_CODE":"US","RCS_SIZE":"LARGE","SITE":"AFETR","OBJECT_NAME":"STARLINK-1098","LAUNCH_DATE":"2020-01-07","CENTER_NAME":"EARTH","PERIOD":"95.588","SEMIMAJOR_AXIS":"6925.166","TLE_LINE2":"2 44917  53.0560  40.4000 0000993 113.5388 246.5705 15.06459621180911","REF_FRAME":"TEME","PERIAPSIS":"546.343","ECCENTRICITY":"0.00009930","NORAD_CAT_ID":"44917","CLASSIFICATION_TYPE":"U","INCLINATION":"53.0560","ELEMENT_SET_NO":"999","MEAN_ANOMALY":"246.5705","DECAY_DATE":null,"MEAN_MOTION_DOT":"0.00025131","BSTAR":"0.00169730000000","MEAN_ELEMENT_THEORY":"SGP4","EPHEMERIS_TYPE":"0"},{"ECCENTRICITY":"0.00010760","REF_FRAME":"TEME","PERIAPSIS":"546.325","TLE_LINE2":"2 44918  53.0559  40.3611 0001076 109.7965 250.3140 15.06446719181650","CENTER_NAME":"EARTH","SEMIMAJOR_AXIS":"6925.205","PERIOD":"95.589","LAUNCH_DATE":"2020-01-07","EPHEMERIS_TYPE":"0","MEAN_MOTION_DOT":"0.00026273","DECAY_DATE":null,"BSTAR":"0.00177390000000","MEAN_ELEMENT_THEORY":"SGP4","ELEMENT_SET_NO":"999","INCLINATION":"53.0559","MEAN_ANOMALY":"250.3140","NORAD_CAT_ID":"44918","CLASSIFICATION_TYPE":"U","ARG_OF_PERICENTER":"109.7965","RA_OF_ASC_NODE":"40.3611","REV_AT_EPOCH":"18165","TIME_SYSTEM":"UTC","MEAN_MOTION":"15.06446719","OBJECT_ID":"2020-001E","OBJECT_TYPE":"PAYLOAD","FILE":"3890827","GP_ID":"230424550","MEAN_MOTION_DDOT":"0.0000000000000","TLE_LINE1":"1 44918U 20001E   23110.21577025  .00026273  00000-0  17739-2 0  9994","OBJECT_NAME":"STARLINK-1099","RCS_SIZE":"LARGE","SITE":"AFETR","COUNTRY_CODE":"US","APOAPSIS":"547.816","EPOCH":"2023-04-20T05:10:42.549600"},{"OBJECT_ID":"2020-001G","OBJECT_TYPE":"PAYLOAD","MEAN_MOTION":"15.17116813","GP_ID":"230425802","FILE":"3890827","TLE_LINE1":"1 44920U 20001G   23110.17159343  .00048255  00000-0  24037-2 0  9994","MEAN_MOTION_DDOT":"0.0000000000000","RA_OF_ASC_NODE":"35.0656","ARG_OF_PERICENTER":"95.1634","REV_AT_EPOCH":"18098","TIME_SYSTEM":"UTC","COUNTRY_CODE":"US","APOAPSIS":"517.922","EPOCH":"2023-04-20T04:07:05.672352","OBJECT_NAME":"STARLINK-1102","RCS_SIZE":"LARGE","SITE":"AFETR","CENTER_NAME":"EARTH","PERIOD":"94.917","SEMIMAJOR_AXIS":"6892.697","LAUNCH_DATE":"2020-01-07","ECCENTRICITY":"0.00048750","TLE_LINE2":"2 44920  53.0548  35.0656 0004875  95.1634 264.9916 15.17116813180980","PERIAPSIS":"511.201","REF_FRAME":"TEME","INCLINATION":"53.0548","ELEMENT_SET_NO":"999","MEAN_ANOMALY":"264.9916","NORAD_CAT_ID":"44920","CLASSIFICATION_TYPE":"U","EPHEMERIS_TYPE":"0","DECAY_DATE":null,"MEAN_MOTION_DOT":"0.00048255","BSTAR":"0.00240370000000","MEAN_ELEMENT_THEORY":"SGP4"},{"BSTAR":"0.00167240000000","MEAN_ELEMENT_THEORY":"SGP4","DECAY_DATE":null,"MEAN_MOTION_DOT":"0.00024748","EPHEMERIS_TYPE":"0","CLASSIFICATION_TYPE":"U","NORAD_CAT_ID":"44921","MEAN_ANOMALY":"268.4020","INCLINATION":"53.0556","ELEMENT_SET_NO":"999","TLE_LINE2":"2 44921  53.0556  40.1744 0001235  91.7110 268.4020 15.06446423180899","PERIAPSIS":"546.216","REF_FRAME":"TEME","ECCENTRICITY":"0.00012350","LAUNCH_DATE":"2020-01-07","PERIOD":"95.589","SEMIMAJOR_AXIS":"6925.206","CENTER_NAME":"EARTH","SITE":"AFETR","RCS_SIZE":"LARGE","OBJECT_NAME":"STARLINK-1103","EPOCH":"2023-04-20T05:58:28.136928","APOAPSIS":"547.927","COUNTRY_CODE":"US","TIME_SYSTEM":"UTC","REV_AT_EPOCH":"18089","RA_OF_ASC_NODE":"40.1744","ARG_OF_PERICENTER":"91.7110","TLE_LINE1":"1 44921U 20001H   23110.24893677  .00024748  00000-0  16724-2 0  9993","MEAN_MOTION_DDOT":"0.0000000000000","GP_ID":"230425552","FILE":"3890827","OBJECT_ID":"2020-001H","OBJECT_TYPE":"PAYLOAD","MEAN_MOTION":"15.06446423"},{"OBJECT_NAME":"STARLINK-1104","RCS_SIZE":"LARGE","SITE":"AFETR","COUNTRY_CODE":"US","APOAPSIS":"547.687","EPOCH":"2023-04-20T05:11:59.868960","RA_OF_ASC_NODE":"40.3280","ARG_OF_PERICENTER":"102.4623","REV_AT_EPOCH":"18091","TIME_SYSTEM":"UTC","OBJECT_ID":"2020-001J","OBJECT_TYPE":"PAYLOAD","MEAN_MOTION":"15.06486463","GP_ID":"230437148","FILE":"3891007","TLE_LINE1":"1 44922U 20001J   23110.21666515  .00031722  00000-0  21340-2 0  9990","MEAN_MOTION_DDOT":"0.0000000000000","EPHEMERIS_TYPE":"0","DECAY_DATE":null,"MEAN_MOTION_DOT":"0.00031722","BSTAR":"0.00213400000000","MEAN_ELEMENT_THEORY":"SGP4","INCLINATION":"53.0549","ELEMENT_SET_NO":"999","MEAN_ANOMALY":"257.6486","NORAD_CAT_ID":"44922","CLASSIFICATION_TYPE":"U","ECCENTRICITY":"0.00010670","TLE_LINE2":"2 44922  53.0549  40.3280 0001067 102.4623 257.6486 15.06486463180918","REF_FRAME":"TEME","PERIAPSIS":"546.210","CENTER_NAME":"EARTH","PERIOD":"95.587","SEMIMAJOR_AXIS":"6925.084","LAUNCH_DATE":"2020-01-07"},{"GP_ID":"230437147","FILE":"3891007","OBJECT_TYPE":"PAYLOAD","OBJECT_ID":"2020-001K","MEAN_MOTION":"15.11671966","TLE_LINE1":"1 44923U 20001K   23110.11859402  .00042098  00000-0  24489-2 0  9994","MEAN_MOTION_DDOT":"0.0000000000000","REV_AT_EPOCH":"18092","RA_OF_ASC_NODE":"38.7886","ARG_OF_PERICENTER":"38.9501","TIME_SYSTEM":"UTC","COUNTRY_CODE":"US","EPOCH":"2023-04-20T02:50:46.523328","APOAPSIS":"532.348","OBJECT_NAME":"STARLINK-1106","SITE":"AFETR","RCS_SIZE":"LARGE","PERIOD":"95.259","SEMIMAJOR_AXIS":"6909.238","CENTER_NAME":"EARTH","LAUNCH_DATE":"2020-01-07","ECCENTRICITY":"0.00018030","TLE_LINE2":"2 44923  53.0550  38.7886 0001803  38.9501 321.1620 15.11671966180928","PERIAPSIS":"529.857","REF_FRAME":"TEME","MEAN_ANOMALY":"321.1620","INCLINATION":"53.0550","ELEMENT_SET_NO":"999","CLASSIFICATION_TYPE":"U","NORAD_CAT_ID":"44923","EPHEMERIS_TYPE":"0","BSTAR":"0.00244890000000","MEAN_ELEMENT_THEORY":"SGP4","DECAY_DATE":null,"MEAN_MOTION_DOT":"0.00042098"},{"EPHEMERIS_TYPE":"0","MEAN_ELEMENT_THEORY":"SGP4","BSTAR":"0.00170140000000","DECAY_DATE":null,"MEAN_MOTION_DOT":"0.00025190","MEAN_ANOMALY":"256.7502","INCLINATION":"53.0580","ELEMENT_SET_NO":"999","CLASSIFICATION_TYPE":"U","NORAD_CAT_ID":"44924","ECCENTRICITY":"0.00011280","TLE_LINE2":"2 44924  53.0580  40.2852 0001128 103.3613 256.7502 15.06455429180913","REF_FRAME":"TEME","PERIAPSIS":"546.263","PERIOD":"95.589","SEMIMAJOR_AXIS":"6925.179","CENTER_NAME":"EARTH","LAUNCH_DATE":"2020-01-07","OBJECT_NAME":"STARLINK-1111","SITE":"AFETR","RCS_SIZE":"LARGE","COUNTRY_CODE":"US","APOAPSIS":"547.825","EPOCH":"2023-04-20T05:33:16.912800","REV_AT_EPOCH":"18091","RA_OF_ASC_NODE":"40.2852","ARG_OF_PERICENTER":"103.3613","TIME_SYSTEM":"UTC","GP_ID":"230437165","FILE":"3891008","OBJECT_ID":"2020-001L","OBJECT_TYPE":"PAYLOAD","MEAN_MOTION":"15.06455429","TLE_LINE1":"1 44924U 20001L   23110.23144575  .00025190  00000-0  17014-2 0  9996","MEAN_MOTION_DDOT":"0.0000000000000"}];
